ICEYE-X43               
1 60539U 24149BZ  26188.77919926  .00001926  00000+0  16056-3 0  9996
2 60539  97.6813 265.4679 0007094  19.1548 340.9941 14.99768892103205
ICEYE-X40               
1 60549U 24149CK  26188.74282332  .00001348  00000+0  11901-3 0  9990
2 60549  97.6795 264.9070 0004819  24.0347 336.1100 14.98034573103157
ICEYE-X49               
1 62384U 24247H   26188.23650533  .00003067  00000+0  18212-3 0  9996
2 62384  44.9985 250.3138 0001185 237.5800 122.4963 15.13579428 85214
ICEYE-X47               
1 62389U 24247N   26188.47585066  .00002108  00000+0  13005-3 0  9995
2 62389  44.9954 248.6236 0002112 317.5108  42.5606 15.13464344 85255
ICEYE-X42               
1 62698U 25009CT  26188.66405801  .00001105  00000+0  11496-3 0  9992
2 62698  97.7388 266.6104 0001284  92.2652 267.8713 14.91853165 80343
ICEYE-X41               
1 62700U 25009CV  26188.72684028  .00001432  00000+0  12981-3 0  9996
2 62700  97.7067 267.9554 0001011  18.7610 341.3649 14.96890405 80483
ICEYE-X45               
1 62705U 25009DA  26188.79744750  .00000480  00000+0  42625-4 0  9998
2 62705  97.8379 275.6505 0000934  71.5068 288.6256 15.00830964 80773
ICEYE-X44               
1 62707U 25009DC  26188.75227204  .00002156  00000+0  19668-3 0  9998
2 62707  97.7046 267.5537 0002469  84.7360 275.4143 14.96136409103015
ICEYE-X48               
1 63253U 25052AV  26188.69627441  .00001921  00000+0  16718-3 0  9995
2 63253  97.6841  80.5695 0003119 121.9484 238.2042 14.98099107 71740
ICEYE-X46               
1 63258U 25052BA  26187.69441439  .00001719  00000+0  16103-3 0  9993
2 63258  97.6861  79.2121 0001486  84.3155 275.8236 14.95342721 71560
