{
 "generated_at": "2026-07-08T07:29:27Z",
 "sources": [
  {
   "name": "CelesTrak",
   "url": "https://celestrak.org/NORAD/elements/",
   "license": "frei verfügbar; Attribution. Ursprünglich USSPACECOM/Space-Track."
  },
  {
   "name": "GCAT (J. McDowell, planet4589.org)",
   "url": "https://planet4589.org/space/gcat/",
   "license": "CC-BY 4.0"
  }
 ],
 "satellites": [
  {
   "norad": 60549,
   "name": "ICEYE-X40",
   "intl": "2024-149CK",
   "group": "sar",
   "gcat": {
    "class": "B",
    "category": "IMG-R",
    "owner": "ALYAH",
    "state": "UAE"
   },
   "omm": {
    "OBJECT_NAME": "ICEYE-X40",
    "OBJECT_ID": "2024-149CK",
    "EPOCH": "2026-07-07T17:49:39.934848",
    "MEAN_MOTION": 14.98034573,
    "ECCENTRICITY": 0.0004819,
    "INCLINATION": 97.6795,
    "RA_OF_ASC_NODE": 264.907,
    "ARG_OF_PERICENTER": 24.0347,
    "MEAN_ANOMALY": 336.11,
    "EPHEMERIS_TYPE": 0,
    "CLASSIFICATION_TYPE": "U",
    "NORAD_CAT_ID": 60549,
    "ELEMENT_SET_NO": 999,
    "REV_AT_EPOCH": 10315,
    "BSTAR": 0.00011901,
    "MEAN_MOTION_DOT": 0.00001348,
    "MEAN_MOTION_DDOT": 0
   }
  },
  {
   "norad": 62700,
   "name": "ICEYE-X41",
   "intl": "2025-009CV",
   "group": "sar",
   "gcat": {
    "class": "B",
    "category": "IMG-R",
    "owner": "ICEUS",
    "state": "US"
   },
   "omm": {
    "OBJECT_NAME": "ICEYE-X41",
    "OBJECT_ID": "2025-009CV",
    "EPOCH": "2026-07-07T17:26:39.000192",
    "MEAN_MOTION": 14.96890405,
    "ECCENTRICITY": 0.0001011,
    "INCLINATION": 97.7067,
    "RA_OF_ASC_NODE": 267.9554,
    "ARG_OF_PERICENTER": 18.761,
    "MEAN_ANOMALY": 341.3649,
    "EPHEMERIS_TYPE": 0,
    "CLASSIFICATION_TYPE": "U",
    "NORAD_CAT_ID": 62700,
    "ELEMENT_SET_NO": 999,
    "REV_AT_EPOCH": 8048,
    "BSTAR": 0.00012981,
    "MEAN_MOTION_DOT": 0.00001432,
    "MEAN_MOTION_DDOT": 0
   }
  },
  {
   "norad": 62698,
   "name": "ICEYE-X42",
   "intl": "2025-009CT",
   "group": "sar",
   "gcat": {
    "class": "B",
    "category": "IMG-R",
    "owner": "SP42",
    "state": "UAE"
   },
   "omm": {
    "OBJECT_NAME": "ICEYE-X42",
    "OBJECT_ID": "2025-009CT",
    "EPOCH": "2026-07-07T15:56:14.612064",
    "MEAN_MOTION": 14.91853165,
    "ECCENTRICITY": 0.0001284,
    "INCLINATION": 97.7388,
    "RA_OF_ASC_NODE": 266.6104,
    "ARG_OF_PERICENTER": 92.2652,
    "MEAN_ANOMALY": 267.8713,
    "EPHEMERIS_TYPE": 0,
    "CLASSIFICATION_TYPE": "U",
    "NORAD_CAT_ID": 62698,
    "ELEMENT_SET_NO": 999,
    "REV_AT_EPOCH": 8034,
    "BSTAR": 0.00011496,
    "MEAN_MOTION_DOT": 0.00001105,
    "MEAN_MOTION_DDOT": 0
   }
  },
  {
   "norad": 60539,
   "name": "ICEYE-X43",
   "intl": "2024-149BZ",
   "group": "sar",
   "gcat": {
    "class": "B",
    "category": "IMG-R",
    "owner": "FAB/ICEYE",
    "state": "BR"
   },
   "omm": {
    "OBJECT_NAME": "ICEYE-X43",
    "OBJECT_ID": "2024-149BZ",
    "EPOCH": "2026-07-07T18:42:02.816064",
    "MEAN_MOTION": 14.99768892,
    "ECCENTRICITY": 0.0007094,
    "INCLINATION": 97.6813,
    "RA_OF_ASC_NODE": 265.4679,
    "ARG_OF_PERICENTER": 19.1548,
    "MEAN_ANOMALY": 340.9941,
    "EPHEMERIS_TYPE": 0,
    "CLASSIFICATION_TYPE": "U",
    "NORAD_CAT_ID": 60539,
    "ELEMENT_SET_NO": 999,
    "REV_AT_EPOCH": 10320,
    "BSTAR": 0.00016056,
    "MEAN_MOTION_DOT": 0.00001926,
    "MEAN_MOTION_DDOT": 0
   }
  },
  {
   "norad": 62707,
   "name": "ICEYE-X44",
   "intl": "2025-009DC",
   "group": "sar",
   "gcat": {
    "class": "B",
    "category": "IMG-R",
    "owner": "SP42",
    "state": "UAE"
   },
   "omm": {
    "OBJECT_NAME": "ICEYE-X44",
    "OBJECT_ID": "2025-009DC",
    "EPOCH": "2026-07-07T18:03:16.304256",
    "MEAN_MOTION": 14.96136409,
    "ECCENTRICITY": 0.0002469,
    "INCLINATION": 97.7046,
    "RA_OF_ASC_NODE": 267.5537,
    "ARG_OF_PERICENTER": 84.736,
    "MEAN_ANOMALY": 275.4143,
    "EPHEMERIS_TYPE": 0,
    "CLASSIFICATION_TYPE": "U",
    "NORAD_CAT_ID": 62707,
    "ELEMENT_SET_NO": 999,
    "REV_AT_EPOCH": 10301,
    "BSTAR": 0.00019668,
    "MEAN_MOTION_DOT": 0.00002156,
    "MEAN_MOTION_DDOT": 0
   }
  },
  {
   "norad": 62705,
   "name": "ICEYE-X45",
   "intl": "2025-009DA",
   "group": "sar",
   "gcat": {
    "class": "B",
    "category": "IMG-R",
    "owner": "ICEUS",
    "state": "US"
   },
   "omm": {
    "OBJECT_NAME": "ICEYE-X45",
    "OBJECT_ID": "2025-009DA",
    "EPOCH": "2026-07-07T19:08:19.464000",
    "MEAN_MOTION": 15.00830964,
    "ECCENTRICITY": 0.0000934,
    "INCLINATION": 97.8379,
    "RA_OF_ASC_NODE": 275.6505,
    "ARG_OF_PERICENTER": 71.5068,
    "MEAN_ANOMALY": 288.6256,
    "EPHEMERIS_TYPE": 0,
    "CLASSIFICATION_TYPE": "U",
    "NORAD_CAT_ID": 62705,
    "ELEMENT_SET_NO": 999,
    "REV_AT_EPOCH": 8077,
    "BSTAR": 0.000042625,
    "MEAN_MOTION_DOT": 0.0000048,
    "MEAN_MOTION_DDOT": 0
   }
  },
  {
   "norad": 63258,
   "name": "ICEYE-X46",
   "intl": "2025-052BA",
   "group": "sar",
   "gcat": {
    "class": "B",
    "category": "IMG-R",
    "owner": "ICEYE",
    "state": "FI"
   },
   "omm": {
    "OBJECT_NAME": "ICEYE-X46",
    "OBJECT_ID": "2025-052BA",
    "EPOCH": "2026-07-06T16:39:57.403296",
    "MEAN_MOTION": 14.95342721,
    "ECCENTRICITY": 0.00014869,
    "INCLINATION": 97.6861,
    "RA_OF_ASC_NODE": 79.2121,
    "ARG_OF_PERICENTER": 84.3155,
    "MEAN_ANOMALY": 275.8236,
    "EPHEMERIS_TYPE": 0,
    "CLASSIFICATION_TYPE": "U",
    "NORAD_CAT_ID": 63258,
    "ELEMENT_SET_NO": 999,
    "REV_AT_EPOCH": 7156,
    "BSTAR": 0.00016103178,
    "MEAN_MOTION_DOT": 0.00001719,
    "MEAN_MOTION_DDOT": 0
   }
  },
  {
   "norad": 62389,
   "name": "ICEYE-X47",
   "intl": "2024-247N",
   "group": "sar",
   "gcat": {
    "class": "B",
    "category": "IMG-R",
    "owner": "ICEYE",
    "state": "FI"
   },
   "omm": {
    "OBJECT_NAME": "ICEYE-X47",
    "OBJECT_ID": "2024-247N",
    "EPOCH": "2026-07-07T11:25:13.497024",
    "MEAN_MOTION": 15.13464344,
    "ECCENTRICITY": 0.00021124,
    "INCLINATION": 44.9954,
    "RA_OF_ASC_NODE": 248.6236,
    "ARG_OF_PERICENTER": 317.5108,
    "MEAN_ANOMALY": 42.5606,
    "EPHEMERIS_TYPE": 0,
    "CLASSIFICATION_TYPE": "U",
    "NORAD_CAT_ID": 62389,
    "ELEMENT_SET_NO": 999,
    "REV_AT_EPOCH": 8525,
    "BSTAR": 0.00013005069,
    "MEAN_MOTION_DOT": 0.00002108,
    "MEAN_MOTION_DDOT": 0
   }
  },
  {
   "norad": 63253,
   "name": "ICEYE-X48",
   "intl": "2025-052AV",
   "group": "sar",
   "gcat": {
    "class": "B",
    "category": "IMG-R",
    "owner": "ICEUS",
    "state": "US"
   },
   "omm": {
    "OBJECT_NAME": "ICEYE-X48",
    "OBJECT_ID": "2025-052AV",
    "EPOCH": "2026-07-07T16:42:38.109024",
    "MEAN_MOTION": 14.98099107,
    "ECCENTRICITY": 0.0003119,
    "INCLINATION": 97.6841,
    "RA_OF_ASC_NODE": 80.5695,
    "ARG_OF_PERICENTER": 121.9484,
    "MEAN_ANOMALY": 238.2042,
    "EPHEMERIS_TYPE": 0,
    "CLASSIFICATION_TYPE": "U",
    "NORAD_CAT_ID": 63253,
    "ELEMENT_SET_NO": 999,
    "REV_AT_EPOCH": 7174,
    "BSTAR": 0.00016718,
    "MEAN_MOTION_DOT": 0.00001921,
    "MEAN_MOTION_DDOT": 0
   }
  },
  {
   "norad": 62384,
   "name": "ICEYE-X49",
   "intl": "2024-247H",
   "group": "sar",
   "gcat": {
    "class": "B",
    "category": "IMG-R",
    "owner": "ICEYE",
    "state": "FI"
   },
   "omm": {
    "OBJECT_NAME": "ICEYE-X49",
    "OBJECT_ID": "2024-247H",
    "EPOCH": "2026-07-07T05:40:34.060512",
    "MEAN_MOTION": 15.13579428,
    "ECCENTRICITY": 0.00011851,
    "INCLINATION": 44.9985,
    "RA_OF_ASC_NODE": 250.3138,
    "ARG_OF_PERICENTER": 237.58,
    "MEAN_ANOMALY": 122.4963,
    "EPHEMERIS_TYPE": 0,
    "CLASSIFICATION_TYPE": "U",
    "NORAD_CAT_ID": 62384,
    "ELEMENT_SET_NO": 999,
    "REV_AT_EPOCH": 8521,
    "BSTAR": 0.00018212459,
    "MEAN_MOTION_DOT": 0.00003067,
    "MEAN_MOTION_DDOT": 0
   }
  }
 ]
}
